[{"OBJECT_NAME":"NEXSAT-1","OBJECT_ID":"2024-024E","EPOCH":"2026-03-09T22:47:24.778176","MEAN_MOTION":15.32166372,"ECCENTRICITY":0.00099795,"INCLINATION":97.3124,"RA_OF_ASC_NODE":144.1918,"ARG_OF_PERICENTER":108.5709,"MEAN_ANOMALY":251.6617,"EPHEMERIS_TYPE":0,"CLASSIFICATION_TYPE":"U","NORAD_CAT_ID":58921,"ELEMENT_SET_NO":999,"REV_AT_EPOCH":11669,"BSTAR":0.00031433612,"MEAN_MOTION_DOT":9.702e-5,"MEAN_MOTION_DDOT":0},{"OBJECT_NAME":"STARLINK-32739","OBJECT_ID":"2025-003M","EPOCH":"2026-03-09T23:07:13.107360","MEAN_MOTION":15.27603988,"ECCENTRICITY":0.00021271,"INCLINATION":43,"RA_OF_ASC_NODE":287.4049,"ARG_OF_PERICENTER":255.3068,"MEAN_ANOMALY":104.7548,"EPHEMERIS_TYPE":0,"CLASSIFICATION_TYPE":"U","NORAD_CAT_ID":62498,"ELEMENT_SET_NO":999,"REV_AT_EPOCH":6666,"BSTAR":0.0013963144,"MEAN_MOTION_DOT":0.00038391,"MEAN_MOTION_DDOT":0}]
